{
  "norad_id": 59375,
  "name": "STARLINK-31430",
  "history": [
    {
      "epoch": "2026-04-13T05:58:04.408032Z",
      "apogee_km": 476.1893293308549,
      "perigee_km": 474.3001261237905,
      "latitude_deg": -1.0052900427290407e-05,
      "longitude_deg": 166.9429640066746,
      "height_km": 476.0656072364102,
      "semi_major_axis_km": 6853.381727727323,
      "eccentricity": 0.00013783,
      "inclination_deg": 53.1612,
      "raan_deg": 97.9035,
      "arg_perigee_deg": 85.3133,
      "mean_anomaly_deg": 274.8025,
      "mean_motion_rev_day": 15.30190067
    },
    {
      "epoch": "2026-04-14T16:27:14.837760Z",
      "apogee_km": 476.2028126181913,
      "perigee_km": 474.29208903330164,
      "latitude_deg": -3.5826708954596484e-05,
      "longitude_deg": 1.5583899222018005,
      "height_km": 476.164640675332,
      "semi_major_axis_km": 6853.384450825746,
      "eccentricity": 0.0001394,
      "inclination_deg": 53.1612,
      "raan_deg": 91.2287,
      "arg_perigee_deg": 91.1489,
      "mean_anomaly_deg": 268.9671,
      "mean_motion_rev_day": 15.30189155
    },
    {
      "epoch": "2026-04-15T11:15:53.030592Z",
      "apogee_km": 476.175552951433,
      "perigee_km": 474.30745903826937,
      "latitude_deg": 1.8351773596753928e-05,
      "longitude_deg": 74.98687063391172,
      "height_km": 476.1031710446517,
      "semi_major_axis_km": 6853.378505994851,
      "eccentricity": 0.00013629,
      "inclination_deg": 53.1605,
      "raan_deg": 87.5888,
      "arg_perigee_deg": 87.7708,
      "mean_anomaly_deg": 272.3449,
      "mean_motion_rev_day": 15.30191146
    },
    {
      "epoch": "2026-04-16T04:30:26.344224Z",
      "apogee_km": 475.9527266325358,
      "perigee_km": 474.42580554045253,
      "latitude_deg": 2.701081659881489e-05,
      "longitude_deg": 172.30314381148784,
      "height_km": 475.9636693142239,
      "semi_major_axis_km": 6853.326266086494,
      "eccentricity": 0.0001114,
      "inclination_deg": 53.161,
      "raan_deg": 84.252,
      "arg_perigee_deg": 80.6517,
      "mean_anomaly_deg": 279.461,
      "mean_motion_rev_day": 15.30208642
    },
    {
      "epoch": "2026-04-17T14:59:38.526144Z",
      "apogee_km": 476.11627110714926,
      "perigee_km": 474.38579062935423,
      "latitude_deg": -4.302707792399005e-06,
      "longitude_deg": 6.910545592449397,
      "height_km": 476.0325635358327,
      "semi_major_axis_km": 6853.388030868251,
      "eccentricity": 0.00012625,
      "inclination_deg": 53.1615,
      "raan_deg": 77.5765,
      "arg_perigee_deg": 82.2467,
      "mean_anomaly_deg": 277.8677,
      "mean_motion_rev_day": 15.30187956
    },
    {
      "epoch": "2026-04-18T14:30:26.017056Z",
      "apogee_km": 476.1120000491801,
      "perigee_km": 474.38357640558934,
      "latitude_deg": -1.5378293191456808e-05,
      "longitude_deg": 8.696506491265163,
      "height_km": 476.0025035197192,
      "semi_major_axis_km": 6853.384788227385,
      "eccentricity": 0.0001261,
      "inclination_deg": 53.1616,
      "raan_deg": 73.026,
      "arg_perigee_deg": 80.4373,
      "mean_anomaly_deg": 279.677,
      "mean_motion_rev_day": 15.30189042
    },
    {
      "epoch": "2026-04-19T14:01:14.662272Z",
      "apogee_km": 476.03547351825364,
      "perigee_km": 474.4729003276352,
      "latitude_deg": -4.4706966718300945e-05,
      "longitude_deg": 10.477529855493904,
      "height_km": 476.02423245476155,
      "semi_major_axis_km": 6853.391186922944,
      "eccentricity": 0.000114,
      "inclination_deg": 53.1611,
      "raan_deg": 68.4754,
      "arg_perigee_deg": 80.5446,
      "mean_anomaly_deg": 279.5683,
      "mean_motion_rev_day": 15.30186899
    },
    {
      "epoch": "2026-04-20T04:07:43.318560Z",
      "apogee_km": 475.9880822843925,
      "perigee_km": 474.4774625191585,
      "latitude_deg": -1.9060962425643904e-05,
      "longitude_deg": 155.54795352616605,
      "height_km": 476.00572882712265,
      "semi_major_axis_km": 6853.369772401775,
      "eccentricity": 0.00011021,
      "inclination_deg": 53.1612,
      "raan_deg": 65.7446,
      "arg_perigee_deg": 80.4356,
      "mean_anomaly_deg": 279.6769,
      "mean_motion_rev_day": 15.30194071
    },
    {
      "epoch": "2026-04-21T20:53:06.017856Z",
      "apogee_km": 475.92308162588415,
      "perigee_km": 474.5277370393442,
      "latitude_deg": -2.2788123221878538e-05,
      "longitude_deg": -105.35723574582414,
      "height_km": 476.0969209244536,
      "semi_major_axis_km": 6853.362409332614,
      "eccentricity": 0.0001018,
      "inclination_deg": 53.1603,
      "raan_deg": 57.8578,
      "arg_perigee_deg": 87.787,
      "mean_anomaly_deg": 272.3247,
      "mean_motion_rev_day": 15.30196537
    },
    {
      "epoch": "2026-04-22T20:23:54.455712Z",
      "apogee_km": 476.0605952795968,
      "perigee_km": 474.4007096341711,
      "latitude_deg": 4.0732156355912195e-05,
      "longitude_deg": -103.57487850838038,
      "height_km": 476.1349496937203,
      "semi_major_axis_km": 6853.367652456884,
      "eccentricity": 0.0001211,
      "inclination_deg": 53.1606,
      "raan_deg": 53.3076,
      "arg_perigee_deg": 90.4201,
      "mean_anomaly_deg": 269.6939,
      "mean_motion_rev_day": 15.30194781
    },
    {
      "epoch": "2026-04-23T05:48:12.377952Z",
      "apogee_km": 475.74653233313893,
      "perigee_km": 474.4418141823753,
      "latitude_deg": 3.0851719359353464e-05,
      "longitude_deg": 113.14188859867461,
      "height_km": 475.8368494004741,
      "semi_major_axis_km": 6853.231173257757,
      "eccentricity": 9.519e-05,
      "inclination_deg": 53.1599,
      "raan_deg": 51.4853,
      "arg_perigee_deg": 76.1766,
      "mean_anomaly_deg": 283.9341,
      "mean_motion_rev_day": 15.30240491
    },
    {
      "epoch": "2026-04-24T05:19:01.358400Z",
      "apogee_km": 476.0777495829616,
      "perigee_km": 474.3945611360059,
      "latitude_deg": 4.741214032688011e-05,
      "longitude_deg": 114.92164471668386,
      "height_km": 475.9929009661573,
      "semi_major_axis_km": 6853.3731553594835,
      "eccentricity": 0.0001228,
      "inclination_deg": 53.1613,
      "raan_deg": 46.9348,
      "arg_perigee_deg": 80.3177,
      "mean_anomaly_deg": 279.7963,
      "mean_motion_rev_day": 15.30192938
    },
    {
      "epoch": "2026-04-25T12:40:04.825632Z",
      "apogee_km": 476.16194735756653,
      "perigee_km": 474.2690513972375,
      "latitude_deg": 5.246271413713619e-06,
      "longitude_deg": -2.697972534525807,
      "height_km": 476.0879434992722,
      "semi_major_axis_km": 6853.352499377402,
      "eccentricity": 0.0001381,
      "inclination_deg": 53.1622,
      "raan_deg": 40.8672,
      "arg_perigee_deg": 88.4431,
      "mean_anomaly_deg": 271.6728,
      "mean_motion_rev_day": 15.30199856
    },
    {
      "epoch": "2026-04-26T18:27:05.689440Z",
      "apogee_km": 476.08106299349765,
      "perigee_km": 474.3610071938492,
      "latitude_deg": -4.094948056472323e-05,
      "longitude_deg": -96.43817364115085,
      "height_km": 476.10052764286337,
      "semi_major_axis_km": 6853.358035093673,
      "eccentricity": 0.00012549,
      "inclination_deg": 53.1621,
      "raan_deg": 35.1038,
      "arg_perigee_deg": 88.7451,
      "mean_anomaly_deg": 271.3693,
      "mean_motion_rev_day": 15.30198002
    },
    {
      "epoch": "2026-04-27T11:41:41.467200Z",
      "apogee_km": 476.20492086038666,
      "perigee_km": 474.2859737751378,
      "latitude_deg": 1.9238395642443196e-05,
      "longitude_deg": 0.8682417253352538,
      "height_km": 476.07636847744993,
      "semi_major_axis_km": 6853.382447317762,
      "eccentricity": 0.00014,
      "inclination_deg": 53.1622,
      "raan_deg": 31.7674,
      "arg_perigee_deg": 85.9832,
      "mean_anomaly_deg": 274.1329,
      "mean_motion_rev_day": 15.30189826
    },
    {
      "epoch": "2026-04-28T17:28:41.963808Z",
      "apogee_km": 476.01877632456853,
      "perigee_km": 474.43839022106476,
      "latitude_deg": 1.0205956821610691e-05,
      "longitude_deg": -92.87059696850037,
      "height_km": 476.13104846552795,
      "semi_major_axis_km": 6853.365583272816,
      "eccentricity": 0.0001153,
      "inclination_deg": 53.1624,
      "raan_deg": 26.0038,
      "arg_perigee_deg": 90.2883,
      "mean_anomaly_deg": 269.825,
      "mean_motion_rev_day": 15.30195474
    },
    {
      "epoch": "2026-04-29T16:59:30.270336Z",
      "apogee_km": 476.01538667932346,
      "perigee_km": 474.4898221533804,
      "latitude_deg": -2.220107694380132e-05,
      "longitude_deg": -91.08825972179405,
      "height_km": 476.1605423939073,
      "semi_major_axis_km": 6853.389604416352,
      "eccentricity": 0.0001113,
      "inclination_deg": 53.1621,
      "raan_deg": 21.4531,
      "arg_perigee_deg": 90.708,
      "mean_anomaly_deg": 269.4048,
      "mean_motion_rev_day": 15.30187429
    },
    {
      "epoch": "2026-04-30T02:23:49.435008Z",
      "apogee_km": 476.13024354648223,
      "perigee_km": 474.42963666696414,
      "latitude_deg": 1.5262247877627438e-05,
      "longitude_deg": 125.62515250383869,
      "height_km": 476.32516207014703,
      "semi_major_axis_km": 6853.416940106723,
      "eccentricity": 0.00012407,
      "inclination_deg": 53.1619,
      "raan_deg": 19.6326,
      "arg_perigee_deg": 99.9478,
      "mean_anomaly_deg": 260.1663,
      "mean_motion_rev_day": 15.30178274
    },
    {
      "epoch": "2026-05-02T09:15:41.634720Z",
      "apogee_km": 476.0456386224769,
      "perigee_km": 474.46661684584706,
      "latitude_deg": -4.387514470727722e-05,
      "longitude_deg": 9.783702072778174,
      "height_km": 476.1125942449977,
      "semi_major_axis_km": 6853.393127734162,
      "eccentricity": 0.0001152,
      "inclination_deg": 53.1614,
      "raan_deg": 9.0119,
      "arg_perigee_deg": 86.9561,
      "mean_anomaly_deg": 273.1571,
      "mean_motion_rev_day": 15.30186249
    }
  ]
}